{
  "norad_id": 62492,
  "name": "STARLINK-32757",
  "history": [
    {
      "epoch": "2026-03-28T14:45:51.648768",
      "apogee_km": 483.821603704665,
      "perigee_km": 482.272348362877,
      "latitude_deg": 38.177821540206686,
      "longitude_deg": 128.25738751981407,
      "semi_major_axis_km": 6861.183976033771,
      "eccentricity": 0.0001129,
      "inclination_deg": 43.0024,
      "raan_deg": 182.289,
      "arg_perigee_deg": 286.5537,
      "mean_anomaly_deg": 73.5191,
      "mean_motion_rev_day": 15.27580708
    }
  ]
}